{"type":"FeatureCollection","source":"Apache Superset malaysia.geojson (state boundaries), simplified locally","features":[{"type":"Feature","properties":{"ISO":"MY-12","NAME_1":"Sabah"},"geometry":{"type":"MultiPolygon","coordinates":[[[[117.70361,4.16341],[117.64015,4.22744],[117.70167,4.26752],[117.78541,4.24665],[117.81772,4.20474],[117.89625,4.18134],[117.90704,4.15668],[117.70361,4.16341]]],[[[116.59023,4.33113],[116.52222,4.39679],[116.48646,4.34883],[116.49411,4.32485],[116.44636,4.31726],[116.41132,4.28865],[116.39107,4.29467],[116.3582,4.35545],[116.31066,4.38338],[116.2288,4.35612],[116.12576,4.37891],[116.10995,4.34511],[116.02065,4.27085],[115.99357,4.28891],[115.97724,4.32863],[115.87885,4.35214],[115.8649,4.38258],[115.84412,4.38922],[115.82118,4.34434],[115.81746,4.28132],[115.77074,4.22561],[115.7326,4.23938],[115.65592,4.17863],[115.63913,4.14595],[115.62791,4.22083],[115.66636,4.28026],[115.67354,4.3233],[115.64414,4.3625],[115.59065,4.3881],[115.56011,4.49694],[115.55701,4.57352],[115.59592,4.6539],[115.60776,4.72684],[115.63845,4.76369],[115.6585,4.82482],[115.63628,4.9405],[115.60931,4.96052],[115.42156,4.96233],[115.47975,5.02603],[115.55698,5.06721],[115.5735,5.16966],[115.60524,5.2121],[115.59864,5.22549],[115.5608,5.20783],[115.48976,5.22297],[115.40065,5.29999],[115.39975,5.3242],[115.36524,5.30744],[115.35963,5.31965],[115.39259,5.41328],[115.55014,5.54019],[115.60483,5.63581],[115.61883,5.61286],[115.58432,5.54849],[115.60483,5.51972],[115.61915,5.56806],[115.67408,5.52936],[115.76238,5.52314],[115.81772,5.53335],[115.84864,5.56],[115.89422,5.64326],[115.93067,5.76301],[116.05079,5.84227],[116.06642,5.93065],[116.14186,6.07307],[116.12623,6.10253],[116.10377,6.09471],[116.10597,6.12645],[116.15406,6.14728],[116.22267,6.23721],[116.25221,6.24592],[116.29151,6.23261],[116.29274,6.27578],[116.23609,6.27261],[116.28321,6.30736],[116.32,6.31338],[116.34767,6.37958],[116.50318,6.49518],[116.52068,6.56875],[116.63901,6.69929],[116.6692,6.87641],[116.69752,6.88972],[116.71892,6.97541],[116.76588,7.02509],[116.83815,6.96214],[116.85182,6.8902],[116.82252,6.90412],[116.8108,6.86286],[116.85239,6.83853],[116.85865,6.81786],[116.84392,6.75226],[116.79274,6.66975],[116.78395,6.59162],[116.82447,6.58173],[116.84547,6.59203],[116.97381,6.70808],[116.98414,6.75495],[117.05787,6.84553],[117.03053,6.93114],[117.08326,6.94847],[117.07838,6.99262],[117.11988,6.98579],[117.15024,7.00312],[117.25652,6.93797],[117.23032,6.81753],[117.27198,6.75373],[117.29591,6.6363],[117.36476,6.62515],[117.45851,6.54755],[117.5337,6.62104],[117.53761,6.57831],[117.56495,6.55439],[117.55812,6.54011],[117.60328,6.51472],[117.64088,6.52171],[117.69532,6.45136],[117.7107,6.46377],[117.72706,6.45116],[117.74383,6.38988],[117.72853,6.36237],[117.73878,6.33568],[117.72299,6.25462],[117.65626,6.25275],[117.60035,6.19782],[117.66114,6.10562],[117.66114,6.06778],[117.63331,6.03986],[117.6683,6.01341],[117.66896,5.97264],[117.61964,5.93745],[117.49285,5.89468],[117.46876,5.86856],[117.56935,5.9029],[117.77426,5.90803],[117.77166,5.94428],[117.88404,5.95466],[117.97364,6.04776],[118.01686,6.06098],[118.05095,6.02619],[118.07716,5.93159],[118.12517,5.86392],[118.09596,5.82416],[118.05885,5.80899],[117.92115,5.80903],[117.90846,5.78465],[117.9603,5.68716],[118.0547,5.71833],[118.07887,5.70466],[118.10662,5.71259],[118.13404,5.68964],[118.15154,5.70515],[118.16082,5.7934],[118.17628,5.80516],[118.26222,5.82787],[118.34067,5.79426],[118.36524,5.81379],[118.594,5.68207],[118.56202,5.56802],[118.56544,5.52595],[118.6006,5.58128],[118.60304,5.61872],[118.65105,5.63642],[118.73658,5.54784],[118.80006,5.52212],[118.81935,5.47809],[118.83237,5.50544],[118.91879,5.45498],[118.93572,5.43399],[118.93946,5.41283],[118.92172,5.40302],[118.93263,5.39411],[118.97641,5.39558],[118.97088,5.42829],[118.9839,5.43651],[119.0857,5.40986],[119.1893,5.45075],[119.27426,5.36115],[119.2671,5.20108],[119.15594,5.10619],[118.68149,4.94432],[118.57228,4.97163],[118.49936,4.93146],[118.4284,5.01878],[118.35719,5.0388],[118.29168,5.00092],[118.29127,4.97785],[118.2527,4.98713],[118.21697,4.96581],[118.13649,4.88231],[118.13494,4.85961],[118.17799,4.83076],[118.219,4.75629],[118.2776,4.69514],[118.33351,4.65156],[118.38054,4.64265],[118.41114,4.60151],[118.4284,4.59431],[118.44459,4.61494],[118.47674,4.60114],[118.48951,4.5751],[118.46941,4.53718],[118.49659,4.50829],[118.55193,4.53278],[118.59962,4.51919],[118.594,4.50552],[118.64576,4.43675],[118.62623,4.41934],[118.59213,4.42914],[118.59278,4.39737],[118.5569,4.36351],[118.39194,4.34638],[118.35328,4.36152],[118.33253,4.33902],[118.16082,4.30622],[117.98268,4.23115],[117.89226,4.25698],[117.82252,4.30622],[117.80828,4.33356],[117.70753,4.36994],[117.67115,4.42601],[117.65602,4.42422],[117.6058,4.38203],[117.62875,4.36176],[117.65366,4.27216],[117.59897,4.20694],[117.62713,4.1765],[117.56715,4.15965],[117.43648,4.18561],[117.35659,4.25951],[117.2027,4.35607],[117.16466,4.33315],[116.98059,4.32956],[116.88303,4.3449],[116.80448,4.33007],[116.71167,4.36679],[116.68004,4.33992],[116.61555,4.34408],[116.59023,4.33113]]],[[[118.21949,5.85554],[118.23308,5.85114],[118.2308,5.83194],[118.16554,5.82754],[118.181,5.85126],[118.21949,5.85554]]],[[[118.72625,4.49189],[118.74879,4.4855],[118.75611,4.45722],[118.67482,4.43659],[118.64405,4.49531],[118.72625,4.49189]]],[[[118.51026,4.64887],[118.52377,4.66572],[118.54949,4.66519],[118.59962,4.6352],[118.57537,4.62739],[118.57228,4.60114],[118.54811,4.62157],[118.53517,4.6013],[118.34645,4.67621],[118.4253,4.67621],[118.45631,4.69725],[118.47608,4.69379],[118.51026,4.64887]]],[[[117.46876,6.76667],[117.51075,6.70429],[117.5066,6.67349],[117.44304,6.63573],[117.34693,6.65497],[117.35499,6.67963],[117.44386,6.69855],[117.4393,6.72394],[117.40358,6.72582],[117.39991,6.73933],[117.46876,6.76667]]],[[[117.00261,7.3557],[117.02272,7.31883],[117.01002,7.27997],[116.99155,7.29719],[116.97674,7.29023],[116.98219,7.25332],[116.88649,7.2294],[116.90512,7.20893],[116.89096,7.19367],[116.85182,7.19807],[116.90016,7.28742],[116.96168,7.30793],[117.00261,7.3557]]],[[[117.17115,7.34268],[117.24627,7.35578],[117.28191,7.33234],[117.26238,7.20197],[117.24708,7.18317],[117.22975,7.19184],[117.14039,7.16763],[117.09889,7.14346],[117.07154,7.10248],[117.05641,7.20287],[117.06772,7.28002],[117.17115,7.34268]]]]}},{"type":"Feature","properties":{"ISO":"MY-09","NAME_1":"Perlis"},"geometry":{"type":"Polygon","coordinates":[[[100.18756,6.70796],[100.21236,6.68918],[100.27396,6.69626],[100.3292,6.55777],[100.37766,6.52675],[100.36548,6.45576],[100.21433,6.29897],[100.19873,6.26053],[100.15284,6.33393],[100.12729,6.44229],[100.1457,6.53952],[100.1672,6.56614],[100.16405,6.68373],[100.18756,6.70796]]]}},{"type":"Feature","properties":{"ISO":"MY-02","NAME_1":"Kedah"},"geometry":{"type":"MultiPolygon","coordinates":[[[[100.37766,6.52675],[100.46723,6.51322],[100.63068,6.44478],[100.72995,6.4932],[100.73388,6.45638],[100.79631,6.43395],[100.80561,6.4148],[100.833,6.23667],[100.85511,6.24791],[100.9101,6.2358],[100.97428,6.27262],[101.02306,6.24099],[101.08166,6.24647],[101.08916,6.18885],[101.05345,6.15761],[101.05252,6.13456],[101.09427,6.08575],[101.07877,5.93817],[101.07112,5.91985],[101.01531,5.89835],[100.96772,5.80412],[100.97243,5.77285],[100.95464,5.76634],[100.98425,5.72211],[100.96999,5.65911],[100.92875,5.61333],[100.94953,5.58516],[100.93682,5.5231],[100.87878,5.47801],[100.85269,5.35412],[100.75574,5.31557],[100.68619,5.20725],[100.5633,5.08155],[100.51751,5.09909],[100.50372,5.13423],[100.54656,5.1292],[100.55911,5.14276],[100.52485,5.46918],[100.53322,5.54979],[100.3543,5.56898],[100.344,5.66926],[100.37631,5.66332],[100.3864,5.6791],[100.36451,5.69408],[100.37574,5.81094],[100.34913,6.01268],[100.24789,6.22077],[100.19873,6.26053],[100.21433,6.29897],[100.36548,6.45576],[100.37766,6.52675]]],[[[99.78629,6.24182],[99.80044,6.27281],[99.83698,6.29423],[99.82643,6.19067],[99.8056,6.17179],[99.76723,6.2238],[99.78629,6.24182]]],[[[99.90062,6.3643],[99.91627,6.33153],[99.86569,6.29053],[99.84459,6.32469],[99.82533,6.3241],[99.72873,6.26148],[99.71904,6.35323],[99.6587,6.36262],[99.64523,6.43584],[99.77093,6.41984],[99.81429,6.45404],[99.8392,6.45482],[99.84203,6.46964],[99.91334,6.3902],[99.90062,6.3643]]]]}},{"type":"Feature","properties":{"ISO":"MY-03","NAME_1":"Kelantan"},"geometry":{"type":"Polygon","coordinates":[[[101.78415,5.7381],[101.91293,5.85931],[101.93474,5.98173],[102.06,6.0948],[102.07309,6.25751],[102.16358,6.1975],[102.18702,6.20344],[102.18312,6.22305],[102.16684,6.21796],[102.17807,6.23363],[102.19955,6.23281],[102.31568,6.19038],[102.37989,6.13296],[102.49985,5.89741],[102.542,5.85476],[102.38629,5.68596],[102.40582,5.60844],[102.39419,5.42727],[102.44029,5.36939],[102.41264,5.18397],[102.52855,5.10607],[102.50313,5.07581],[102.51305,4.9104],[102.55077,4.90792],[102.63625,4.85826],[102.66529,4.79061],[102.66064,4.76842],[102.60664,4.77392],[102.60245,4.69455],[102.55248,4.70821],[102.507,4.67393],[102.45052,4.71217],[102.40288,4.71821],[102.37197,4.70395],[102.34329,4.64499],[102.27704,4.6622],[102.22769,4.63698],[102.17896,4.66367],[102.12884,4.72124],[102.11612,4.75912],[102.04259,4.73382],[102.00145,4.76299],[101.98735,4.75258],[101.96761,4.7626],[101.94451,4.67369],[101.91205,4.61783],[101.8919,4.67052],[101.8503,4.69478],[101.80203,4.76315],[101.77769,4.74312],[101.76715,4.63558],[101.64799,4.56189],[101.59259,4.56065],[101.52148,4.59936],[101.47291,4.57034],[101.37906,4.61285],[101.34335,4.68176],[101.3879,4.70992],[101.38495,4.75056],[101.41906,4.79333],[101.41059,4.83071],[101.44903,4.8543],[101.46144,4.8882],[101.45647,4.94065],[101.43508,4.97455],[101.45663,4.99512],[101.52882,5.27218],[101.5513,5.27529],[101.61693,5.35993],[101.67636,5.33363],[101.74989,5.36861],[101.75237,5.49129],[101.74137,5.50953],[101.67047,5.51806],[101.68736,5.58191],[101.66752,5.61278],[101.66442,5.65818],[101.69439,5.69487],[101.69757,5.76714],[101.71475,5.7829],[101.74002,5.78236],[101.78415,5.7381]]]}},{"type":"Feature","properties":{"ISO":"MY-08","NAME_1":"Perak"},"geometry":{"type":"Polygon","coordinates":[[[100.97243,5.77285],[100.99862,5.72955],[101.05981,5.70958],[101.12218,5.62989],[101.2123,5.68151],[101.24899,5.78699],[101.55791,5.91135],[101.63409,5.85559],[101.63078,5.82841],[101.66592,5.76559],[101.69966,5.76115],[101.69439,5.69487],[101.66442,5.65818],[101.66752,5.61278],[101.68736,5.58191],[101.66938,5.52225],[101.7502,5.49858],[101.74989,5.36861],[101.67636,5.33363],[101.61693,5.35993],[101.5513,5.27529],[101.52882,5.27218],[101.45663,4.99512],[101.43508,4.97455],[101.45647,4.94065],[101.46144,4.8882],[101.44903,4.8543],[101.41059,4.83071],[101.41906,4.79333],[101.38495,4.75056],[101.3879,4.70992],[101.34335,4.68176],[101.37906,4.61285],[101.36273,4.55791],[101.38635,4.49973],[101.34196,4.43146],[101.37023,4.40244],[101.44578,4.38203],[101.43322,4.34418],[101.45255,4.31842],[101.46531,4.22057],[101.51156,4.20088],[101.522,4.12732],[101.55099,4.12468],[101.58494,4.08203],[101.56076,4.0042],[101.60143,3.86703],[101.59895,3.7976],[101.62685,3.77176],[101.52066,3.67562],[101.37023,3.79346],[101.33669,3.78959],[101.32584,3.76925],[101.34506,3.72055],[101.33746,3.68952],[101.26563,3.66825],[101.24047,3.71667],[101.17494,3.71517],[101.13277,3.75259],[101.08068,3.73032],[101.08172,3.74794],[101.10435,3.75057],[101.09247,3.77633],[101.06172,3.75313],[101.05846,3.78571],[101.01981,3.80023],[100.96844,3.77316],[100.97625,3.80628],[100.94333,3.83328],[100.93945,3.86106],[100.78484,3.83934],[100.72071,3.86807],[100.70069,3.91722],[100.70631,3.98359],[100.80152,3.99112],[100.83465,4.01854],[100.87143,4.01887],[100.8615,4.04035],[100.7776,4.02139],[100.76588,4.09984],[100.67774,4.16519],[100.63258,4.15546],[100.62257,4.17585],[100.61524,4.25165],[100.56544,4.31916],[100.64552,4.56004],[100.59734,4.57193],[100.59441,4.61091],[100.61695,4.63825],[100.63258,4.62906],[100.66619,4.66991],[100.60418,4.66584],[100.59449,4.74307],[100.63258,4.75812],[100.61207,4.77237],[100.61736,4.79291],[100.57618,4.79926],[100.5774,4.85432],[100.55006,4.87543],[100.4944,4.87226],[100.51531,4.88906],[100.511,4.90693],[100.4817,4.92471],[100.45387,4.90892],[100.44158,4.92284],[100.36451,5.0843],[100.4041,5.12018],[100.491,5.13881],[100.51751,5.09909],[100.57095,5.0845],[100.68619,5.20725],[100.75574,5.31557],[100.85269,5.35412],[100.87878,5.47801],[100.89506,5.50013],[100.9179,5.50021],[100.94333,5.53801],[100.94953,5.58516],[100.92875,5.61333],[100.96999,5.65911],[100.98425,5.72211],[100.95464,5.76634],[100.97243,5.77285]]]}},{"type":"Feature","properties":{"ISO":"MY-13","NAME_1":"Sarawak"},"geometry":{"type":"MultiPolygon","coordinates":[[[[115.34627,4.31377],[115.35826,4.35028],[115.2856,4.43536],[115.27248,4.47466],[115.27268,4.63677],[115.20737,4.8256],[115.1468,4.88562],[115.14617,4.90851],[115.18946,4.91747],[115.21062,4.9597],[115.23862,4.93732],[115.28533,4.93122],[115.30397,4.90615],[115.3423,4.89981],[115.42156,4.96233],[115.62248,4.95781],[115.6585,4.82482],[115.55809,4.58158],[115.56011,4.49694],[115.59065,4.3881],[115.65426,4.35348],[115.6754,4.31245],[115.62791,4.22083],[115.63913,4.14595],[115.60951,3.99691],[115.58099,3.94692],[115.53882,3.92061],[115.5383,3.89783],[115.58863,3.8576],[115.5444,3.62916],[115.60124,3.43023],[115.58502,3.41682],[115.55721,3.42545],[115.51763,3.35716],[115.4828,3.20647],[115.51701,3.15728],[115.48218,3.11097],[115.46409,3.03082],[115.30999,2.98592],[115.24209,3.04162],[115.20799,2.9807],[115.12282,2.91295],[115.06908,2.83264],[115.10463,2.76149],[115.05699,2.71126],[115.07187,2.67183],[115.05647,2.60863],[115.07146,2.59462],[115.11497,2.6079],[115.15197,2.59705],[115.19238,2.55106],[115.20613,2.50987],[115.19269,2.49055],[115.10505,2.46569],[114.97296,2.35748],[114.92221,2.35391],[114.91333,2.28405],[114.77876,2.2472],[114.75303,2.13481],[114.78062,2.03605],[114.84108,2.03822],[114.83199,1.90252],[114.67954,1.84074],[114.669,1.69401],[114.62446,1.59879],[114.56317,1.53639],[114.56802,1.46939],[114.5456,1.43495],[114.50064,1.43604],[114.37486,1.50694],[114.17342,1.42051],[114.09426,1.46567],[113.90967,1.44247],[113.86822,1.4155],[113.80817,1.33971],[113.62483,1.22757],[113.52447,1.31356],[113.39755,1.29393],[113.32366,1.35139],[113.1586,1.38816],[113.08905,1.43133],[112.9582,1.41565],[113.02435,1.51438],[113.01411,1.55079],[112.97319,1.56985],[112.85495,1.58272],[112.80152,1.54378],[112.47048,1.56766],[112.39854,1.52334],[112.29519,1.50381],[112.16156,1.43454],[112.15412,1.40953],[112.18181,1.40002],[112.18739,1.37966],[112.09293,1.14314],[111.9101,1.11404],[111.82308,1.00847],[111.76282,0.99302],[111.62267,1.03027],[111.53886,0.99772],[111.5032,0.95844],[111.47209,1.02221],[111.37411,1.00754],[111.19758,1.07523],[110.97341,1.01772],[110.88039,1.01053],[110.79699,0.94966],[110.77673,0.90325],[110.75833,0.91452],[110.70418,0.90139],[110.66129,0.87214],[110.61343,0.89395],[110.5539,0.85137],[110.46026,0.87974],[110.36415,0.98139],[110.26348,0.99431],[110.25656,1.03906],[110.17036,1.17445],[110.07455,1.19864],[110.01213,1.27052],[109.96376,1.29858],[109.92025,1.39477],[109.84283,1.40327],[109.80056,1.46676],[109.77555,1.45795],[109.76635,1.49647],[109.64698,1.61763],[109.64181,1.781],[109.56699,1.79255],[109.5398,1.82656],[109.52937,1.90516],[109.60027,1.98314],[109.64527,2.08324],[109.66358,1.98306],[109.65463,1.937],[109.69304,1.87311],[109.88673,1.7602],[109.92774,1.69229],[110.16765,1.70185],[110.21168,1.68203],[110.25416,1.7062],[110.29078,1.67398],[110.30787,1.7093],[110.30104,1.77074],[110.32936,1.80256],[110.34303,1.79751],[110.36647,1.71589],[110.39015,1.69904],[110.42115,1.69571],[110.44361,1.7187],[110.50799,1.74091],[110.52076,1.72297],[110.46559,1.62055],[110.50636,1.633],[110.53631,1.59687],[110.58904,1.60627],[110.72674,1.54743],[110.73341,1.49868],[110.67791,1.44864],[110.72511,1.45311],[110.76344,1.47968],[110.76661,1.55166],[110.7933,1.57241],[110.83961,1.56599],[110.92482,1.5312],[111.04396,1.42695],[111.14194,1.37153],[111.23268,1.3946],[111.34059,1.33332],[111.38356,1.35366],[111.32553,1.36734],[111.3047,1.40762],[111.261,1.41991],[111.1985,1.40143],[111.15797,1.40615],[111.04835,1.47655],[111.00685,1.55508],[111.03785,1.67695],[111.11752,1.68887],[111.17945,1.62702],[111.2151,1.63984],[111.24578,1.62132],[111.26743,1.62735],[111.17286,1.65937],[111.15821,1.69229],[111.12615,1.70661],[111.09604,1.77448],[111.13022,1.7919],[111.10987,1.81542],[111.11313,1.83552],[111.1753,1.95319],[111.2059,2.069],[111.26783,2.06753],[111.24187,2.08942],[111.25392,2.12613],[111.33644,2.11213],[111.37794,2.16181],[111.35678,2.16621],[111.32911,2.12873],[111.27052,2.15379],[111.18474,2.14509],[111.18483,2.19477],[111.21998,2.2204],[111.24008,2.21638],[111.18483,2.25365],[111.22096,2.41608],[111.24635,2.4361],[111.36549,2.34077],[111.44825,2.37238],[111.49342,2.34614],[111.42416,2.42723],[111.40455,2.48395],[111.48732,2.47394],[111.52125,2.49071],[111.46168,2.508],[111.42286,2.53962],[111.41765,2.57954],[111.44028,2.68012],[111.5298,2.76069],[111.66961,2.84309],[111.86061,2.8806],[112.01352,2.88593],[112.72731,3.06611],[113.00782,3.16169],[113.08229,3.25678],[113.06935,3.279],[113.16212,3.35346],[113.19955,3.41551],[113.2776,3.4842],[113.30812,3.55931],[113.39145,3.64834],[113.43426,3.75316],[113.73683,4.00129],[113.94679,4.27383],[113.96778,4.32217],[113.96062,4.36152],[113.9922,4.43708],[113.97584,4.59471],[113.99879,4.60114],[114.11896,4.56163],[114.20908,4.50815],[114.21673,4.48766],[114.24556,4.48143],[114.2899,4.36131],[114.29672,4.31666],[114.27626,4.28902],[114.28267,4.26491],[114.41992,4.26013],[114.47738,4.14497],[114.56937,4.0644],[114.58663,4.02144],[114.62776,4.01668],[114.76688,4.13182],[114.81721,4.25966],[114.8138,4.2771],[114.78259,4.26442],[114.78196,4.28493],[114.82899,4.34049],[114.84563,4.39511],[114.8479,4.42374],[114.80605,4.43332],[114.78817,4.4612],[114.7739,4.63682],[114.74197,4.72945],[114.85576,4.80666],[114.94836,4.81893],[114.95891,4.86629],[115.0158,4.91641],[115.02681,4.66003],[115.07983,4.50396],[115.09182,4.40542],[115.16995,4.36126],[115.2207,4.35976],[115.34627,4.31377]]],[[[111.41139,2.3911],[111.41049,2.37222],[111.39096,2.38215],[111.36988,2.35981],[111.34262,2.41389],[111.31267,2.43134],[111.31764,2.53677],[111.299,2.7027],[111.31544,2.78449],[111.34995,2.77131],[111.38103,2.6979],[111.38185,2.52334],[111.41139,2.3911]]]]}},{"type":"Feature","properties":{"ISO":"MY-07","NAME_1":"Pulau Pinang"},"geometry":{"type":"MultiPolygon","coordinates":[[[[100.4041,5.12018],[100.43092,5.19062],[100.41896,5.24848],[100.43328,5.29003],[100.38022,5.39069],[100.38494,5.49925],[100.3543,5.56898],[100.53322,5.54979],[100.52485,5.46918],[100.55834,5.1385],[100.4041,5.12018]]],[[[100.30983,5.45075],[100.34344,5.41763],[100.28875,5.26268],[100.18434,5.26854],[100.19614,5.29999],[100.17945,5.4582],[100.21062,5.444],[100.23471,5.4645],[100.2741,5.46849],[100.30983,5.45075]]]]}},{"type":"Feature","properties":{"ISO":"MY-10","NAME_1":"Selangor"},"geometry":{"type":"MultiPolygon","coordinates":[[[[101.7212,2.59585],[101.67351,2.62726],[101.54233,2.66128],[101.50278,2.6894],[101.39918,2.81908],[101.28639,2.84968],[101.30348,2.89484],[101.28102,2.89785],[101.28305,2.9112],[101.37281,3.00235],[101.365,3.07636],[101.32342,3.12446],[101.29762,3.2746],[101.23569,3.34414],[101.1976,3.35932],[101.10841,3.47394],[101.04054,3.62198],[100.9336,3.68928],[100.88649,3.75633],[100.81227,3.78657],[100.84057,3.84281],[100.93945,3.86106],[100.94333,3.83328],[100.97625,3.80628],[100.96844,3.77316],[101.01981,3.80023],[101.05846,3.78571],[101.06172,3.75313],[101.09247,3.77633],[101.10435,3.75057],[101.08172,3.74794],[101.08068,3.73032],[101.13277,3.75259],[101.17494,3.71517],[101.24047,3.71667],[101.26563,3.66825],[101.33746,3.68952],[101.34506,3.72055],[101.32506,3.76623],[101.33405,3.78773],[101.3617,3.79447],[101.442,3.74685],[101.51063,3.67593],[101.54324,3.68882],[101.62685,3.77176],[101.66814,3.71574],[101.77165,3.66895],[101.81397,3.58849],[101.7656,3.4995],[101.78591,3.42579],[101.76498,3.37326],[101.8303,3.28915],[101.9335,3.24905],[101.96171,3.14252],[101.96451,3.03708],[101.94203,3.01762],[101.93133,2.96594],[101.90255,2.93941],[101.87996,2.87104],[101.85511,2.85678],[101.7595,2.86282],[101.77258,2.73815],[101.7212,2.59585]],[[101.71641,3.20614],[101.66514,3.23174],[101.62174,3.17882],[101.62608,3.14051],[101.66535,3.08588],[101.66209,3.04074],[101.72788,3.02692],[101.75196,3.05222],[101.74183,3.12632],[101.76312,3.17596],[101.74617,3.21469],[101.71641,3.20614]],[[101.68147,2.87424],[101.73036,2.92887],[101.713,2.98121],[101.67155,2.96036],[101.6669,2.89393],[101.68147,2.87424]]],[[[101.27117,3.04645],[101.25961,3.03022],[101.23699,3.03506],[101.26287,3.05634],[101.27117,3.04645]]],[[[101.33766,3.05183],[101.3353,3.00902],[101.26808,2.96516],[101.30592,3.06395],[101.3235,3.07111],[101.33766,3.05183]]]]}},{"type":"Feature","properties":{"ISO":"MY-05","NAME_1":"Negeri Sembilan"},"geometry":{"type":"Polygon","coordinates":[[[101.98847,2.39133],[101.92677,2.42243],[101.86524,2.39452],[101.85108,2.47895],[101.80323,2.51801],[101.78305,2.57587],[101.7212,2.59585],[101.77258,2.73815],[101.7595,2.86282],[101.85511,2.85678],[101.87996,2.87104],[101.90255,2.93941],[101.93133,2.96594],[101.94203,3.01762],[101.96342,3.03305],[101.94575,3.22128],[101.91598,3.2606],[101.93365,3.28342],[102.00021,3.22849],[102.04925,3.22329],[102.06905,3.17169],[102.13023,3.19451],[102.30448,3.13198],[102.38861,3.11792],[102.46634,3.02925],[102.66808,2.89184],[102.6873,2.89649],[102.70456,2.839],[102.63408,2.63387],[102.64198,2.60493],[102.6195,2.56139],[102.62105,2.48135],[102.59935,2.42174],[102.45657,2.45489],[102.38365,2.48786],[102.26728,2.46334],[102.18036,2.49228],[102.14966,2.46752],[102.07468,2.45962],[102.06088,2.42727],[102.04646,2.43766],[101.98847,2.39133]]]}},{"type":"Feature","properties":{"ISO":"MY-04","NAME_1":"Melaka"},"geometry":{"type":"Polygon","coordinates":[[[102.48889,2.09298],[102.15431,2.23566],[102.05128,2.34089],[101.99903,2.36164],[101.98847,2.39133],[102.04646,2.43766],[102.06088,2.42727],[102.07468,2.45962],[102.14966,2.46752],[102.18036,2.49228],[102.26728,2.46334],[102.38365,2.48786],[102.45657,2.45489],[102.59935,2.42174],[102.5469,2.3904],[102.51972,2.34975],[102.50204,2.23377],[102.4806,2.20785],[102.48825,2.18961],[102.53537,2.17106],[102.53651,2.13654],[102.48889,2.09298]]]}},{"type":"Feature","properties":{"ISO":"MY-01","NAME_1":"Johor"},"geometry":{"type":"MultiPolygon","coordinates":[[[[103.64031,2.67129],[103.71616,2.64155],[103.76515,2.64891],[103.7671,2.62385],[103.81398,2.58149],[103.83969,2.52485],[103.83766,2.46381],[103.94899,2.33991],[103.98365,2.25365],[103.97641,2.19237],[104.1128,1.97614],[104.12428,1.87055],[104.14918,1.83747],[104.16749,1.84707],[104.19532,1.79873],[104.25522,1.63776],[104.29371,1.47158],[104.27735,1.36734],[104.23959,1.36734],[104.21925,1.34618],[104.17408,1.34821],[104.10621,1.37519],[104.1006,1.41885],[104.06495,1.44864],[104.05942,1.48534],[104.14763,1.5454],[104.11118,1.54507],[104.0534,1.50629],[104.01222,1.59687],[103.96599,1.64785],[103.97039,1.60863],[104.00831,1.54873],[104.00978,1.44864],[103.97446,1.41983],[103.83969,1.47655],[103.7531,1.44864],[103.6976,1.45063],[103.60011,1.35346],[103.56471,1.35985],[103.54786,1.38207],[103.54851,1.33169],[103.51637,1.27045],[103.45484,1.33942],[103.41391,1.46784],[103.36736,1.5384],[103.20607,1.61042],[103.03712,1.71552],[102.93458,1.74754],[102.83562,1.84565],[102.80445,1.86009],[102.73878,1.84663],[102.69939,1.85944],[102.65065,1.9409],[102.55763,2.01874],[102.5573,2.04511],[102.48889,2.09298],[102.53651,2.13654],[102.53537,2.17106],[102.48825,2.18961],[102.4806,2.20785],[102.50204,2.23377],[102.51972,2.34975],[102.5469,2.3904],[102.59935,2.42174],[102.62012,2.47597],[102.6195,2.56139],[102.64198,2.60493],[102.63408,2.63387],[102.70456,2.839],[102.81443,2.79471],[102.99209,2.59524],[103.15498,2.52935],[103.36447,2.5939],[103.61851,2.44595],[103.63603,2.49484],[103.60239,2.53083],[103.62394,2.60214],[103.60022,2.6324],[103.64031,2.67129]]],[[[104.22267,2.78559],[104.22511,2.73591],[104.21079,2.71507],[104.15748,2.71328],[104.13063,2.74579],[104.12696,2.78559],[104.16033,2.81786],[104.15382,2.86408],[104.17066,2.8911],[104.18621,2.88532],[104.22267,2.78559]]]]}},{"type":"Feature","properties":{"ISO":"MY-06","NAME_1":"Pahang"},"geometry":{"type":"Polygon","coordinates":[[[103.4428,4.16897],[103.40398,4.13182],[103.39405,4.09862],[103.438,3.97504],[103.43434,3.95002],[103.41163,3.96393],[103.3947,3.935],[103.37843,3.80244],[103.35108,3.78921],[103.33961,3.73835],[103.38722,3.62474],[103.46217,3.53413],[103.44801,3.50495],[103.48219,3.51179],[103.42807,3.36717],[103.45607,3.20376],[103.43458,2.96182],[103.47364,2.85102],[103.64031,2.67129],[103.60022,2.6324],[103.62394,2.60214],[103.60239,2.53083],[103.63603,2.49484],[103.61851,2.44595],[103.36447,2.5939],[103.15498,2.52935],[102.99209,2.59524],[102.81443,2.79471],[102.70456,2.839],[102.6873,2.89649],[102.66808,2.89184],[102.46634,3.02925],[102.38861,3.11792],[102.30448,3.13198],[102.13023,3.19451],[102.06905,3.17169],[102.04925,3.22329],[102.00021,3.22849],[101.94854,3.27799],[101.93365,3.28342],[101.91598,3.2606],[101.8303,3.28915],[101.76498,3.37326],[101.78591,3.42579],[101.7656,3.4995],[101.8055,3.55319],[101.81335,3.59764],[101.77165,3.66895],[101.66814,3.71574],[101.60127,3.79238],[101.60143,3.86703],[101.56076,4.0042],[101.58494,4.08203],[101.55099,4.12468],[101.522,4.12732],[101.51156,4.20088],[101.46531,4.22057],[101.45255,4.31842],[101.43322,4.34418],[101.44578,4.38203],[101.37023,4.40244],[101.34196,4.43146],[101.38635,4.49973],[101.36449,4.57414],[101.37906,4.61285],[101.47291,4.57034],[101.52148,4.59936],[101.59259,4.56065],[101.65512,4.56468],[101.76715,4.63558],[101.77769,4.74312],[101.80203,4.76315],[101.8503,4.69478],[101.8919,4.67052],[101.91205,4.61783],[101.94451,4.67369],[101.96761,4.7626],[101.98735,4.75258],[102.00145,4.76299],[102.04259,4.73382],[102.11612,4.75912],[102.12884,4.72124],[102.17896,4.66367],[102.22769,4.63698],[102.27704,4.6622],[102.34329,4.64499],[102.37197,4.70395],[102.40288,4.71821],[102.45052,4.71217],[102.507,4.67393],[102.55248,4.70821],[102.60245,4.69455],[102.5979,4.74204],[102.61904,4.78147],[102.66064,4.76842],[102.6904,4.71736],[102.73448,4.68927],[102.84388,4.67594],[102.88078,4.61923],[102.87075,4.57375],[102.84326,4.54714],[102.85753,4.49818],[102.8875,4.46986],[102.94879,4.45606],[102.97514,4.47531],[103.02449,4.41283],[103.01395,4.3386],[102.96475,4.32501],[102.93401,4.27318],[102.90331,4.14083],[102.92202,4.11073],[103.00821,4.13453],[103.11854,4.08699],[103.17704,4.03585],[103.2034,4.03818],[103.21368,4.01521],[103.23972,4.01746],[103.32024,3.87532],[103.3437,3.94942],[103.32644,4.04438],[103.30318,4.07923],[103.32458,4.14308],[103.31858,4.19359],[103.4428,4.16897]]]}},{"type":"Feature","properties":{"ISO":"MY-11","NAME_1":"Terengganu"},"geometry":{"type":"Polygon","coordinates":[[[102.542,5.85476],[102.62631,5.79719],[102.6692,5.725],[102.87566,5.57144],[102.9756,5.53132],[103.12029,5.38133],[103.44801,4.80655],[103.44264,4.74282],[103.46941,4.55003],[103.45143,4.48847],[103.49643,4.30622],[103.44801,4.21747],[103.44858,4.17243],[103.31858,4.19359],[103.32458,4.14308],[103.30318,4.07923],[103.32644,4.04438],[103.3437,3.94942],[103.32024,3.87532],[103.23972,4.01746],[103.21368,4.01521],[103.2034,4.03818],[103.17704,4.03585],[103.11854,4.08699],[103.00821,4.13453],[102.93855,4.1091],[102.91726,4.11515],[102.90331,4.14083],[102.93618,4.2784],[102.96475,4.32501],[103.01504,4.34232],[103.02527,4.39973],[103.01178,4.43929],[102.97018,4.47756],[102.94879,4.45606],[102.88347,4.47218],[102.84373,4.53877],[102.87324,4.58034],[102.87169,4.64863],[102.84388,4.67594],[102.75293,4.68338],[102.6904,4.71736],[102.66064,4.76842],[102.6395,4.855],[102.57558,4.89676],[102.51119,4.91513],[102.50313,5.07581],[102.52855,5.10607],[102.41264,5.18397],[102.44029,5.36939],[102.39419,5.42727],[102.40582,5.60844],[102.38629,5.68596],[102.542,5.85476]]]}},{"type":"Feature","properties":{"ISO":"MY-15","NAME_1":"Labuan"},"geometry":{"type":"Polygon","coordinates":[[[115.24855,5.36546],[115.25929,5.29121],[115.24171,5.27269],[115.20411,5.2836],[115.15919,5.25218],[115.18914,5.34479],[115.24171,5.3874],[115.24855,5.36546]]]}},{"type":"Feature","properties":{"ISO":"MY-14","NAME_1":"Kuala Lumpur"},"geometry":{"type":"Polygon","coordinates":[[[101.66845,3.23221],[101.70835,3.20699],[101.74617,3.21469],[101.76044,3.188],[101.74183,3.12632],[101.75196,3.05222],[101.72788,3.02692],[101.66209,3.04074],[101.66535,3.08588],[101.62484,3.14407],[101.62236,3.18208],[101.66845,3.23221]]]}},{"type":"Feature","properties":{"ISO":"MY-16","NAME_1":"Putrajaya"},"geometry":{"type":"Polygon","coordinates":[[[101.713,2.98121],[101.73036,2.92887],[101.67713,2.87548],[101.67155,2.96036],[101.713,2.98121]]]}}],"metadata":{"datasetVersion":"chargewise-map-display-simplified-v1","purpose":"Lightweight Google Map display geometry only. Geographic assignment and coverage analysis use malaysia_states.geojson."}}